<?xml version="1.0" encoding="UTF-8"?>
<ndm xmlns:xsi="http://www.w3.org/2001/XMLSchema-instance" xsi:noNamespaceSchemaLocation="https://sanaregistry.org/r/ndmxml_unqualified/ndmxml-2.0.0-master-2.0.xsd">
<omm id="CCSDS_OMM_VERS" version="2.0">
<header><CREATION_DATE/><ORIGINATOR/></header><body><segment><metadata><OBJECT_NAME>KUIPER-00104</OBJECT_NAME><OBJECT_ID>2025-171L</OBJECT_ID><CENTER_NAME>EARTH</CENTER_NAME><REF_FRAME>TEME</REF_FRAME><TIME_SYSTEM>UTC</TIME_SYSTEM><MEAN_ELEMENT_THEORY>SGP4</MEAN_ELEMENT_THEORY></metadata><data><meanElements><EPOCH>2025-09-13T08:00:01.000224</EPOCH><MEAN_MOTION>15.35953723</MEAN_MOTION><ECCENTRICITY>.00035257</ECCENTRICITY><INCLINATION>51.8763</INCLINATION><RA_OF_ASC_NODE>246.4719</RA_OF_ASC_NODE><ARG_OF_PERICENTER>264.5606</ARG_OF_PERICENTER><MEAN_ANOMALY>160.6923</MEAN_ANOMALY></meanElements><tleParameters><EPHEMERIS_TYPE>0</EPHEMERIS_TYPE><CLASSIFICATION_TYPE>U</CLASSIFICATION_TYPE><NORAD_CAT_ID>65142</NORAD_CAT_ID><ELEMENT_SET_NO>999</ELEMENT_SET_NO><REV_AT_EPOCH>470</REV_AT_EPOCH><BSTAR>.86629932E-3</BSTAR><MEAN_MOTION_DOT>.30532E-3</MEAN_MOTION_DOT><MEAN_MOTION_DDOT>0</MEAN_MOTION_DDOT></tleParameters></data></segment></body></omm>
<omm id="CCSDS_OMM_VERS" version="2.0">
<header><CREATION_DATE/><ORIGINATOR/></header><body><segment><metadata><OBJECT_NAME>KUIPER-00105</OBJECT_NAME><OBJECT_ID>2025-171M</OBJECT_ID><CENTER_NAME>EARTH</CENTER_NAME><REF_FRAME>TEME</REF_FRAME><TIME_SYSTEM>UTC</TIME_SYSTEM><MEAN_ELEMENT_THEORY>SGP4</MEAN_ELEMENT_THEORY></metadata><data><meanElements><EPOCH>2025-09-13T16:49:11.114976</EPOCH><MEAN_MOTION>15.36630169</MEAN_MOTION><ECCENTRICITY>.00043493</ECCENTRICITY><INCLINATION>51.8754</INCLINATION><RA_OF_ASC_NODE>244.5666</RA_OF_ASC_NODE><ARG_OF_PERICENTER>232.0704</ARG_OF_PERICENTER><MEAN_ANOMALY>127.9889</MEAN_ANOMALY></meanElements><tleParameters><EPHEMERIS_TYPE>0</EPHEMERIS_TYPE><CLASSIFICATION_TYPE>U</CLASSIFICATION_TYPE><NORAD_CAT_ID>65143</NORAD_CAT_ID><ELEMENT_SET_NO>999</ELEMENT_SET_NO><REV_AT_EPOCH>635</REV_AT_EPOCH><BSTAR>.1172988E-2</BSTAR><MEAN_MOTION_DOT>.42467E-3</MEAN_MOTION_DOT><MEAN_MOTION_DDOT>0</MEAN_MOTION_DDOT></tleParameters></data></segment></body></omm>
<omm id="CCSDS_OMM_VERS" version="2.0">
<header><CREATION_DATE/><ORIGINATOR/></header><body><segment><metadata><OBJECT_NAME>KUIPER-00106</OBJECT_NAME><OBJECT_ID>2025-171N</OBJECT_ID><CENTER_NAME>EARTH</CENTER_NAME><REF_FRAME>TEME</REF_FRAME><TIME_SYSTEM>UTC</TIME_SYSTEM><MEAN_ELEMENT_THEORY>SGP4</MEAN_ELEMENT_THEORY></metadata><data><meanElements><EPOCH>2025-09-13T09:11:17.982528</EPOCH><MEAN_MOTION>15.36235075</MEAN_MOTION><ECCENTRICITY>.00043061</ECCENTRICITY><INCLINATION>51.8763</INCLINATION><RA_OF_ASC_NODE>246.1814</RA_OF_ASC_NODE><ARG_OF_PERICENTER>253.2850</ARG_OF_PERICENTER><MEAN_ANOMALY>106.7664</MEAN_ANOMALY></meanElements><tleParameters><EPHEMERIS_TYPE>0</EPHEMERIS_TYPE><CLASSIFICATION_TYPE>U</CLASSIFICATION_TYPE><NORAD_CAT_ID>65144</NORAD_CAT_ID><ELEMENT_SET_NO>999</ELEMENT_SET_NO><REV_AT_EPOCH>630</REV_AT_EPOCH><BSTAR>.83167323E-3</BSTAR><MEAN_MOTION_DOT>.29563E-3</MEAN_MOTION_DOT><MEAN_MOTION_DDOT>0</MEAN_MOTION_DDOT></tleParameters></data></segment></body></omm>
<omm id="CCSDS_OMM_VERS" version="2.0">
<header><CREATION_DATE/><ORIGINATOR/></header><body><segment><metadata><OBJECT_NAME>KUIPER-00107</OBJECT_NAME><OBJECT_ID>2025-171P</OBJECT_ID><CENTER_NAME>EARTH</CENTER_NAME><REF_FRAME>TEME</REF_FRAME><TIME_SYSTEM>UTC</TIME_SYSTEM><MEAN_ELEMENT_THEORY>SGP4</MEAN_ELEMENT_THEORY></metadata><data><meanElements><EPOCH>2025-09-13T09:13:38.776512</EPOCH><MEAN_MOTION>15.36149740</MEAN_MOTION><ECCENTRICITY>.000394</ECCENTRICITY><INCLINATION>51.8718</INCLINATION><RA_OF_ASC_NODE>246.1980</RA_OF_ASC_NODE><ARG_OF_PERICENTER>250.4481</ARG_OF_PERICENTER><MEAN_ANOMALY>109.6080</MEAN_ANOMALY></meanElements><tleParameters><EPHEMERIS_TYPE>0</EPHEMERIS_TYPE><CLASSIFICATION_TYPE>U</CLASSIFICATION_TYPE><NORAD_CAT_ID>65145</NORAD_CAT_ID><ELEMENT_SET_NO>999</ELEMENT_SET_NO><REV_AT_EPOCH>630</REV_AT_EPOCH><BSTAR>.12094129E-2</BSTAR><MEAN_MOTION_DOT>.43124E-3</MEAN_MOTION_DOT><MEAN_MOTION_DDOT>0</MEAN_MOTION_DDOT></tleParameters></data></segment></body></omm>
<omm id="CCSDS_OMM_VERS" version="2.0">
<header><CREATION_DATE/><ORIGINATOR/></header><body><segment><metadata><OBJECT_NAME>KUIPER-00108</OBJECT_NAME><OBJECT_ID>2025-171Q</OBJECT_ID><CENTER_NAME>EARTH</CENTER_NAME><REF_FRAME>TEME</REF_FRAME><TIME_SYSTEM>UTC</TIME_SYSTEM><MEAN_ELEMENT_THEORY>SGP4</MEAN_ELEMENT_THEORY></metadata><data><meanElements><EPOCH>2025-09-13T06:18:29.680128</EPOCH><MEAN_MOTION>15.35707404</MEAN_MOTION><ECCENTRICITY>.00039656</ECCENTRICITY><INCLINATION>51.8751</INCLINATION><RA_OF_ASC_NODE>246.8747</RA_OF_ASC_NODE><ARG_OF_PERICENTER>273.8317</ARG_OF_PERICENTER><MEAN_ANOMALY>86.2215</MEAN_ANOMALY></meanElements><tleParameters><EPHEMERIS_TYPE>0</EPHEMERIS_TYPE><CLASSIFICATION_TYPE>U</CLASSIFICATION_TYPE><NORAD_CAT_ID>65146</NORAD_CAT_ID><ELEMENT_SET_NO>999</ELEMENT_SET_NO><REV_AT_EPOCH>628</REV_AT_EPOCH><BSTAR>.10127349E-2</BSTAR><MEAN_MOTION_DOT>.355E-3</MEAN_MOTION_DOT><MEAN_MOTION_DDOT>0</MEAN_MOTION_DDOT></tleParameters></data></segment></body></omm>
<omm id="CCSDS_OMM_VERS" version="2.0">
<header><CREATION_DATE/><ORIGINATOR/></header><body><segment><metadata><OBJECT_NAME>KUIPER-00109</OBJECT_NAME><OBJECT_ID>2025-171R</OBJECT_ID><CENTER_NAME>EARTH</CENTER_NAME><REF_FRAME>TEME</REF_FRAME><TIME_SYSTEM>UTC</TIME_SYSTEM><MEAN_ELEMENT_THEORY>SGP4</MEAN_ELEMENT_THEORY></metadata><data><meanElements><EPOCH>2025-09-13T16:56:36.927744</EPOCH><MEAN_MOTION>15.36304922</MEAN_MOTION><ECCENTRICITY>.00031888</ECCENTRICITY><INCLINATION>51.8730</INCLINATION><RA_OF_ASC_NODE>244.5975</RA_OF_ASC_NODE><ARG_OF_PERICENTER>234.2711</ARG_OF_PERICENTER><MEAN_ANOMALY>125.7979</MEAN_ANOMALY></meanElements><tleParameters><EPHEMERIS_TYPE>0</EPHEMERIS_TYPE><CLASSIFICATION_TYPE>U</CLASSIFICATION_TYPE><NORAD_CAT_ID>65147</NORAD_CAT_ID><ELEMENT_SET_NO>999</ELEMENT_SET_NO><REV_AT_EPOCH>634</REV_AT_EPOCH><BSTAR>.61862631E-3</BSTAR><MEAN_MOTION_DOT>.21916E-3</MEAN_MOTION_DOT><MEAN_MOTION_DDOT>0</MEAN_MOTION_DDOT></tleParameters></data></segment></body></omm>
<omm id="CCSDS_OMM_VERS" version="2.0">
<header><CREATION_DATE/><ORIGINATOR/></header><body><segment><metadata><OBJECT_NAME>KUIPER-00110</OBJECT_NAME><OBJECT_ID>2025-171S</OBJECT_ID><CENTER_NAME>EARTH</CENTER_NAME><REF_FRAME>TEME</REF_FRAME><TIME_SYSTEM>UTC</TIME_SYSTEM><MEAN_ELEMENT_THEORY>SGP4</MEAN_ELEMENT_THEORY></metadata><data><meanElements><EPOCH>2025-09-13T09:09:58.226688</EPOCH><MEAN_MOTION>15.36275708</MEAN_MOTION><ECCENTRICITY>.00040309</ECCENTRICITY><INCLINATION>51.8769</INCLINATION><RA_OF_ASC_NODE>246.1814</RA_OF_ASC_NODE><ARG_OF_PERICENTER>247.3084</ARG_OF_PERICENTER><MEAN_ANOMALY>112.7476</MEAN_ANOMALY></meanElements><tleParameters><EPHEMERIS_TYPE>0</EPHEMERIS_TYPE><CLASSIFICATION_TYPE>U</CLASSIFICATION_TYPE><NORAD_CAT_ID>65148</NORAD_CAT_ID><ELEMENT_SET_NO>999</ELEMENT_SET_NO><REV_AT_EPOCH>629</REV_AT_EPOCH><BSTAR>.74509499E-3</BSTAR><MEAN_MOTION_DOT>.26469E-3</MEAN_MOTION_DOT><MEAN_MOTION_DDOT>0</MEAN_MOTION_DDOT></tleParameters></data></segment></body></omm>
<omm id="CCSDS_OMM_VERS" version="2.0">
<header><CREATION_DATE/><ORIGINATOR/></header><body><segment><metadata><OBJECT_NAME>KUIPER-00111</OBJECT_NAME><OBJECT_ID>2025-171T</OBJECT_ID><CENTER_NAME>EARTH</CENTER_NAME><REF_FRAME>TEME</REF_FRAME><TIME_SYSTEM>UTC</TIME_SYSTEM><MEAN_ELEMENT_THEORY>SGP4</MEAN_ELEMENT_THEORY></metadata><data><meanElements><EPOCH>2025-09-13T22:00:03.000096</EPOCH><MEAN_MOTION>15.32210001</MEAN_MOTION><ECCENTRICITY>.00044337</ECCENTRICITY><INCLINATION>51.8776</INCLINATION><RA_OF_ASC_NODE>243.7210</RA_OF_ASC_NODE><ARG_OF_PERICENTER>270.0713</ARG_OF_PERICENTER><MEAN_ANOMALY>112.7146</MEAN_ANOMALY></meanElements><tleParameters><EPHEMERIS_TYPE>0</EPHEMERIS_TYPE><CLASSIFICATION_TYPE>U</CLASSIFICATION_TYPE><NORAD_CAT_ID>65149</NORAD_CAT_ID><ELEMENT_SET_NO>999</ELEMENT_SET_NO><REV_AT_EPOCH>493</REV_AT_EPOCH><BSTAR>-.52785096E-2</BSTAR><MEAN_MOTION_DOT>-.163447E-2</MEAN_MOTION_DOT><MEAN_MOTION_DDOT>0</MEAN_MOTION_DDOT></tleParameters></data></segment></body></omm>

</ndm>
