KUIPER-00104            
1 65142U 25171L   25256.33334491  .00030532  00000+0  86630-3 0  9992
2 65142  51.8763 246.4719 0003525 264.5606 160.6923 15.35953723  4708
KUIPER-00105            
1 65143U 25171M   25256.70082309  .00042467  00000+0  11730-2 0  9990
2 65143  51.8754 244.5666 0004349 232.0704 127.9889 15.36630169  6350
KUIPER-00106            
1 65144U 25171N   25256.38284702  .00029563  00000+0  83167-3 0  9992
2 65144  51.8763 246.1814 0004306 253.2850 106.7664 15.36235075  6302
KUIPER-00107            
1 65145U 25171P   25256.38447658  .00043124  00000+0  12094-2 0  9993
2 65145  51.8718 246.1980 0003940 250.4481 109.6080 15.36149740  6306
KUIPER-00108            
1 65146U 25171Q   25256.26284352  .00035500  00000+0  10127-2 0  9995
2 65146  51.8751 246.8747 0003965 273.8317  86.2215 15.35707404  6289
KUIPER-00109            
1 65147U 25171R   25256.70598296  .00021916  00000+0  61863-3 0  9990
2 65147  51.8730 244.5975 0003188 234.2711 125.7979 15.36304922  6343
KUIPER-00110            
1 65148U 25171S   25256.38192392  .00026469  00000+0  74509-3 0  9991
2 65148  51.8769 246.1814 0004030 247.3084 112.7476 15.36275708  6292
KUIPER-00111            
1 65149U 25171T   25256.91670139 -.00163447  00000+0 -52785-2 0  9992
2 65149  51.8776 243.7210 0004433 270.0713 112.7146 15.32210001  4937
